NORAD_CAT_ID,OBJECT_NAME,OBJECT_TYPE,EPOCH,MEAN_MOTION,ECCENTRICITY,INCLINATION,RA_OF_ASC_NODE,ARG_OF_PERICENTER,MEAN_ANOMALY,BSTAR,MEAN_MOTION_DOT,MEAN_MOTION_DDOT,TLE_LINE0,TLE_LINE1,TLE_LINE2,SEMIMAJOR_AXIS,PERIOD,APOGEE,PERIGEE,DECAYED
54788.0,STARLINK-5399,PAYLOAD,2024-03-26 23:04:23,15.08825251,0.0001982,53.2182,348.5467,86.8606,273.2613,-6.4022e-05,-1.307e-05,0.0,0 STARLINK-5399,1 54788U 22175AG  24086.96138869 -.00001307  00000-0 -64022-4 0  9990,2 54788  53.2182 348.5467 0001982  86.8606 273.2613 15.08825251 72534,6917.925,95.438,541.162,538.419,0.0
54788.0,STARLINK-5399,PAYLOAD,2024-03-27 00:39:47,15.08831797,0.0001956,53.2181,348.2567,96.5654,263.556,3.3963e-05,2.52e-06,0.0,0 STARLINK-5399,1 54788U 22175AG  24087.02762750  .00000252  00000-0  33963-4 0  9996,2 54788  53.2181 348.2567 0001956  96.5654 263.5560 15.08831797 70389,6917.905,95.438,541.124,538.417,0.0
54788.0,STARLINK-5399,PAYLOAD,2024-03-27 10:12:06,15.08831986,0.0001657,53.2171,346.4696,87.8543,272.2638,0.00016709,2.372e-05,0.0,0 STARLINK-5399,1 54788U 22175AG  24087.42506963  .00002372  00000-0  16709-3 0  9995,2 54788  53.2171 346.4696 0001657  87.8543 272.2638 15.08831986 72609,6917.905,95.438,540.916,538.624,0.0
54788.0,STARLINK-5399,PAYLOAD,2024-03-27 21:19:48,15.08830876,0.0001809,53.2171,344.3881,80.4646,279.6551,0.00010903,1.447e-05,0.0,0 STARLINK-5399,1 54788U 22175AG  24087.88875344  .00001447  00000-0  10903-3 0  9999,2 54788  53.2171 344.3881 0001809  80.4646 279.6551 15.08830876 72673,6917.908,95.438,541.025,538.522,0.0
54788.0,STARLINK-5399,PAYLOAD,2024-03-28 10:02:53,15.08835706,0.0001509,53.2174,342.0092,86.0895,274.027,5.0622e-05,5.18e-06,0.0,0 STARLINK-5399,1 54788U 22175AG  24088.41867346  .00000518  00000-0  50622-4 0  9993,2 54788  53.2174 342.0092 0001509  86.0895 274.0270 15.08835706 70593,6917.894,95.438,540.802,538.715,0.0
54788.0,STARLINK-5399,PAYLOAD,2024-03-28 21:10:31,15.08899949,0.0001638,53.2169,339.9254,78.4646,281.653,0.001024,0.00016073,0.0,0 STARLINK-5399,1 54788U 22175AG  24088.88231431  .00016073  00000-0  10240-2 0  9997,2 54788  53.2169 339.9254 0001638  78.4646 281.6530 15.08899949 70664,6917.697,95.434,540.695,538.429,0.0
54788.0,STARLINK-5399,PAYLOAD,2024-03-28 22:45:56,15.08863498,0.0001888,53.2173,339.6275,101.1272,258.9933,0.0004349,6.645e-05,0.0,0 STARLINK-5399,1 54788U 22175AG  24088.94856794  .00006645  00000-0  43490-3 0  9997,2 54788  53.2173 339.6275 0001888 101.1272 258.9933 15.08863498 72830,6917.809,95.436,540.98,538.367,0.0
54788.0,STARLINK-5399,PAYLOAD,2024-03-29 01:56:43,15.08835732,0.0001353,53.2173,339.0355,89.0309,271.0838,-8.8357e-05,-1.694e-05,0.0,0 STARLINK-5399,1 54788U 22175AG  24089.08106269 -.00001694  00000-0 -88357-4 0  9991,2 54788  53.2173 339.0355 0001353  89.0309 271.0838 15.08835732 70697,6917.893,95.438,540.694,538.822,0.0
54788.0,STARLINK-5399,PAYLOAD,2024-03-29 09:53:39,15.08827416,0.0001393,53.2173,337.5483,85.5465,274.5686,-0.00019592,-3.404e-05,0.0,0 STARLINK-5399,1 54788U 22175AG  24089.41226797 -.00003404  00000-0 -19592-3 0  9992,2 54788  53.2173 337.5483 0001393  85.5465 274.5686 15.08827416 72905,6917.919,95.438,540.748,538.82,0.0
54788.0,STARLINK-5399,PAYLOAD,2024-03-29 22:36:44,15.08832992,0.0001247,53.2166,335.1689,84.8875,275.2259,-7.2431e-05,-1.44e-05,0.0,0 STARLINK-5399,1 54788U 22175AG  24089.94218682 -.00001440  00000-0 -72431-4 0  9994,2 54788  53.2166 335.1689 0001247  84.8875 275.2259 15.08832992 72981,6917.902,95.438,540.629,538.904,0.0
54788.0,STARLINK-5399,PAYLOAD,2024-03-30 01:47:31,15.08837045,0.0001202,53.2167,334.5739,94.9743,265.1386,-1.1368e-05,-4.69e-06,0.0,0 STARLINK-5399,1 54788U 22175AG  24090.07466451 -.00000469  00000-0 -11368-4 0  9991,2 54788  53.2167 334.5739 0001202  94.9743 265.1386 15.08837045 70844,6917.889,95.438,540.586,538.923,0.0
54788.0,STARLINK-5399,PAYLOAD,2024-03-30 09:44:26,15.08837502,0.000132,53.2169,333.0881,87.5618,272.5525,-6.7214e-07,-2.99e-06,0.0,0 STARLINK-5399,1 54788U 22175AG  24090.40586731 -.00000299  00000-0 -67214-6 0  9996,2 54788  53.2169 333.0881 0001320  87.5618 272.5525 15.08837502 73059,6917.888,95.438,540.666,538.84,0.0
54788.0,STARLINK-5399,PAYLOAD,2024-03-30 22:27:31,15.08849438,0.0001281,53.2161,330.7075,87.8026,272.3112,-0.00027745,-4.702e-05,0.0,0 STARLINK-5399,1 54788U 22175AG  24090.93577883 -.00004702  00000-0 -27745-3 0  9997,2 54788  53.2161 330.7075 0001281  87.8026 272.3112 15.08849438 73132,6917.852,95.437,540.603,538.83,0.0
54788.0,STARLINK-5399,PAYLOAD,2024-03-31 01:38:17,15.08845281,0.000147,53.2166,330.1127,98.9798,261.1361,0.00012581,1.715e-05,0.0,0 STARLINK-5399,1 54788U 22175AG  24091.06826307  .00001715  00000-0  12581-3 0  9991,2 54788  53.2166 330.1127 0001470  98.9798 261.1361 15.08845281 70993,6917.864,95.437,540.746,538.712,0.0
54788.0,STARLINK-5399,PAYLOAD,2024-03-31 20:42:56,15.08841929,0.0001333,53.2166,326.544,94.8146,265.2998,0.00032668,4.915e-05,0.0,0 STARLINK-5399,1 54788U 22175AG  24091.86314914  .00004915  00000-0  32668-3 0  9998,2 54788  53.2166 326.5440 0001333  94.8146 265.2998 15.08841929 71111,6917.874,95.437,540.662,538.817,0.0
54788.0,STARLINK-5399,PAYLOAD,2024-03-31 22:18:19,15.08841204,0.0001301,53.2159,326.249,85.7114,274.4027,0.00030764,4.612e-05,0.0,0 STARLINK-5399,1 54788U 22175AG  24091.92939001  .00004612  00000-0  30764-3 0  9994,2 54788  53.2159 326.2490 0001301  85.7114 274.4027 15.08841204 73285,6917.877,95.437,540.642,538.842,0.0
54788.0,STARLINK-5399,PAYLOAD,2024-04-01 18:58:20,15.08838491,0.0001284,53.2163,322.3833,86.9212,273.1927,0.00011316,1.513e-05,0.0,0 STARLINK-5399,1 54788U 22175AG  24092.79051218  .00001513  00000-0  11316-3 0  9994,2 54788  53.2163 322.3833 0001284  86.9212 273.1927 15.08838491 71254,6917.885,95.438,540.638,538.862,0.0
54788.0,STARLINK-5399,PAYLOAD,2024-04-02 07:41:25,15.08843569,0.0001205,53.2162,320.0043,84.5371,275.5759,0.00010569,1.395e-05,0.0,0 STARLINK-5399,1 54788U 22175AG  24093.32042955  .00001395  00000-0  10569-3 0  9999,2 54788  53.2162 320.0043 0001205  84.5371 275.5759 15.08843569 73493,6917.869,95.437,540.568,538.901,0.0
54788.0,STARLINK-5399,PAYLOAD,2024-04-02 21:59:53,15.08838272,0.0001312,53.218,317.3311,100.8307,259.2833,5.2476e-05,5.47e-06,0.0,0 STARLINK-5399,1 54788U 22175AG  24093.91659288  .00000547  00000-0  52476-4 0  9999,2 54788  53.2180 317.3311 0001312 100.8307 259.2833 15.08838272 73587,6917.886,95.438,540.658,538.843,0.0
54788.0,STARLINK-5399,PAYLOAD,2024-04-03 01:10:39,15.08838891,0.0001343,53.2171,316.7336,93.523,266.5916,0.0001048,1.38e-05,0.0,0 STARLINK-5399,1 54788U 22175AG  24094.04907282  .00001380  00000-0  10480-3 0  9998,2 54788  53.2171 316.7336 0001343  93.5230 266.5916 15.08838891 71447,6917.884,95.438,540.678,538.82,0.0
54788.0,STARLINK-5399,PAYLOAD,2024-04-03 07:32:12,15.08840023,0.0001331,53.2171,315.5452,95.7806,264.3338,6.487e-05,7.45e-06,0.0,0 STARLINK-5399,1 54788U 22175AG  24094.31403210  .00000745  00000-0  64870-4 0  9997,2 54788  53.2171 315.5452 0001331  95.7806 264.3338 15.08840023 73641,6917.88,95.438,540.666,538.825,0.0
54788.0,STARLINK-5399,PAYLOAD,2024-04-03 20:15:17,15.08838627,0.0001383,53.2176,313.1662,101.6241,258.4907,0.00010465,1.378e-05,0.0,0 STARLINK-5399,1 54788U 22175AG  24094.84395557  .00001378  00000-0  10465-3 0  9992,2 54788  53.2176 313.1662 0001383 101.6241 258.4907 15.08838627 73722,6917.885,95.438,540.706,538.793,0.0
54788.0,STARLINK-5399,PAYLOAD,2024-04-04 07:22:59,15.08839381,0.0001392,53.218,311.0841,93.261,266.8542,7.1139e-05,8.44e-06,0.0,0 STARLINK-5399,1 54788U 22175AG  24095.30763612  .00000844  00000-0  71139-4 0  9998,2 54788  53.2180 311.0841 0001392  93.2610 266.8542 15.08839381 71633,6917.882,95.438,540.71,538.784,0.0
54788.0,STARLINK-5399,PAYLOAD,2024-04-04 21:41:27,15.08842657,0.0001316,53.2175,308.407,90.5095,269.6048,8.6117e-05,1.083e-05,0.0,0 STARLINK-5399,1 54788U 22175AG  24095.90379380  .00001083  00000-0  86117-4 0  9997,2 54788  53.2175 308.4070 0001316  90.5095 269.6048 15.08842657 73885,6917.872,95.437,540.648,538.827,0.0
54788.0,STARLINK-5399,PAYLOAD,2024-04-05 13:35:18,15.08843693,0.0001329,53.2175,305.4334,89.6411,270.4734,0.00011713,1.577e-05,0.0,0 STARLINK-5399,1 54788U 22175AG  24096.56619125  .00001577  00000-0  11713-3 0  9991,2 54788  53.2175 305.4334 0001329  89.6411 270.4734 15.08843693 73984,6917.869,95.437,540.653,538.815,0.0
54788.0,STARLINK-5399,PAYLOAD,2024-04-05 19:56:51,15.08847653,0.0001258,53.2172,304.2437,90.6379,269.4757,0.00011077,1.476e-05,0.0,0 STARLINK-5399,1 54788U 22175AG  24096.83114807  .00001476  00000-0  11077-3 0  9999,2 54788  53.2172 304.2437 0001258  90.6379 269.4757 15.08847653 71866,6917.857,95.437,540.592,538.852,0.0
54788.0,STARLINK-5399,PAYLOAD,2024-04-06 07:04:33,15.08846589,0.0001232,53.2171,302.1621,89.8979,270.2154,0.00010498,1.384e-05,0.0,0 STARLINK-5399,1 54788U 22175AG  24097.29482730  .00001384  00000-0  10498-3 0  9997,2 54788  53.2171 302.1621 0001232  89.8979 270.2154 15.08846589 74091,6917.86,95.437,540.578,538.873,0.0
54788.0,STARLINK-5399,PAYLOAD,2024-04-06 19:47:38,15.08840982,0.0001312,53.2175,299.7836,91.3394,268.7748,5.5756e-05,6e-06,0.0,0 STARLINK-5399,1 54788U 22175AG  24097.82475164  .00000600  00000-0  55756-4 0  9996,2 54788  53.2175 299.7836 0001312  91.3394 268.7748 15.08840982 72014,6917.877,95.437,540.65,538.835,0.0
54788.0,STARLINK-5399,PAYLOAD,2024-04-07 13:16:53,15.08839026,0.0001358,53.2165,296.5106,95.6401,264.4746,-1.8163e-05,-5.77e-06,0.0,0 STARLINK-5399,1 54788U 22175AG  24098.55339418 -.00000577  00000-0 -18163-4 0  9994,2 54788  53.2165 296.5106 0001358  95.6401 264.4746 15.08839026 74283,6917.883,95.438,540.688,538.809,0.0
54788.0,STARLINK-5399,PAYLOAD,2024-04-07 19:38:25,15.08839026,0.0001352,53.2163,295.3214,93.3643,266.7504,-1.9087e-05,-5.92e-06,0.0,0 STARLINK-5399,1 54788U 22175AG  24098.81835417 -.00000592  00000-0 -19087-4 0  9996,2 54788  53.2163 295.3214 0001352  93.3643 266.7504 15.08839026 74327,6917.883,95.438,540.684,538.813,0.0
